[{"OBJECT_NAME":"STARLINK-3545","OBJECT_ID":"2022-022D","EPOCH":"2026-03-09T07:18:15.157440","MEAN_MOTION":15.08856005,"ECCENTRICITY":0.00011808,"INCLINATION":53.2201,"RA_OF_ASC_NODE":20.7719,"ARG_OF_PERICENTER":82.2196,"MEAN_ANOMALY":277.893,"EPHEMERIS_TYPE":0,"CLASSIFICATION_TYPE":"U","NORAD_CAT_ID":51855,"ELEMENT_SET_NO":999,"REV_AT_EPOCH":22291,"BSTAR":0.0002050944,"MEAN_MOTION_DOT":2.979e-5,"MEAN_MOTION_DDOT":0},{"OBJECT_NAME":"FALCON 9 DEB","OBJECT_ID":"2021-041BG","EPOCH":"2026-03-09T15:47:07.516032","MEAN_MOTION":15.0585876,"ECCENTRICITY":0.00124165,"INCLINATION":53.0346,"RA_OF_ASC_NODE":200.9185,"ARG_OF_PERICENTER":159.6872,"MEAN_ANOMALY":200.4613,"EPHEMERIS_TYPE":0,"CLASSIFICATION_TYPE":"U","NORAD_CAT_ID":48607,"ELEMENT_SET_NO":999,"REV_AT_EPOCH":26415,"BSTAR":0.00013916149,"MEAN_MOTION_DOT":1.762e-5,"MEAN_MOTION_DDOT":0}]
